[{"OBJECT_NAME":"STARLINK-31356","OBJECT_ID":"2024-031D","EPOCH":"2025-08-01T04:36:59.748480","MEAN_MOTION":15.30175279,"ECCENTRICITY":9.69e-5,"INCLINATION":53.1588,"RA_OF_ASC_NODE":213.0344,"ARG_OF_PERICENTER":83.6765,"MEAN_ANOMALY":276.4346,"EPHEMERIS_TYPE":0,"CLASSIFICATION_TYPE":"U","NORAD_CAT_ID":58968,"ELEMENT_SET_NO":999,"REV_AT_EPOCH":8312,"BSTAR":-5.1856e-5,"MEAN_MOTION_DOT":-1.893e-5,"MEAN_MOTION_DDOT":0},{"OBJECT_NAME":"STARLINK-31335","OBJECT_ID":"2024-031E","EPOCH":"2025-07-31T08:26:23.605440","MEAN_MOTION":15.30195828,"ECCENTRICITY":0.0001131,"INCLINATION":53.1588,"RA_OF_ASC_NODE":242.0729,"ARG_OF_PERICENTER":79.1461,"MEAN_ANOMALY":280.9667,"EPHEMERIS_TYPE":0,"CLASSIFICATION_TYPE":"U","NORAD_CAT_ID":58969,"ELEMENT_SET_NO":999,"REV_AT_EPOCH":8268,"BSTAR":-2.7625e-5,"MEAN_MOTION_DOT":-1.177e-5,"MEAN_MOTION_DDOT":0},{"OBJECT_NAME":"STARLINK-31368","OBJECT_ID":"2024-031F","EPOCH":"2025-07-31T13:51:51.851808","MEAN_MOTION":15.30193372,"ECCENTRICITY":0.0001164,"INCLINATION":53.1587,"RA_OF_ASC_NODE":243.483,"ARG_OF_PERICENTER":83.0979,"MEAN_ANOMALY":277.0154,"EPHEMERIS_TYPE":0,"CLASSIFICATION_TYPE":"U","NORAD_CAT_ID":58970,"ELEMENT_SET_NO":999,"REV_AT_EPOCH":8268,"BSTAR":1.5888e-5,"MEAN_MOTION_DOT":1.11e-6,"MEAN_MOTION_DDOT":0},{"OBJECT_NAME":"STARLINK-31333","OBJECT_ID":"2024-031G","EPOCH":"2025-08-01T05:05:56.465376","MEAN_MOTION":15.30172652,"ECCENTRICITY":0.0001019,"INCLINATION":53.16,"RA_OF_ASC_NODE":228.2583,"ARG_OF_PERICENTER":89.4335,"MEAN_ANOMALY":270.6782,"EPHEMERIS_TYPE":0,"CLASSIFICATION_TYPE":"U","NORAD_CAT_ID":58971,"ELEMENT_SET_NO":999,"REV_AT_EPOCH":8295,"BSTAR":8.6682e-5,"MEAN_MOTION_DOT":2.207e-5,"MEAN_MOTION_DDOT":0},{"OBJECT_NAME":"STARLINK-31351","OBJECT_ID":"2024-031H","EPOCH":"2025-07-31T11:09:35.612928","MEAN_MOTION":15.30189382,"ECCENTRICITY":0.000112,"INCLINATION":53.1584,"RA_OF_ASC_NODE":244.1931,"ARG_OF_PERICENTER":95.834,"MEAN_ANOMALY":264.2788,"EPHEMERIS_TYPE":0,"CLASSIFICATION_TYPE":"U","NORAD_CAT_ID":58972,"ELEMENT_SET_NO":999,"REV_AT_EPOCH":8265,"BSTAR":-2.2845e-5,"MEAN_MOTION_DOT":-1.035e-5,"MEAN_MOTION_DDOT":0},{"OBJECT_NAME":"STARLINK-31365","OBJECT_ID":"2024-031J","EPOCH":"2025-07-31T11:18:42.479136","MEAN_MOTION":15.30189989,"ECCENTRICITY":0.0001258,"INCLINATION":53.1593,"RA_OF_ASC_NODE":244.231,"ARG_OF_PERICENTER":86.4468,"MEAN_ANOMALY":273.6676,"EPHEMERIS_TYPE":0,"CLASSIFICATION_TYPE":"U","NORAD_CAT_ID":58973,"ELEMENT_SET_NO":999,"REV_AT_EPOCH":8266,"BSTAR":-2.0743e-5,"MEAN_MOTION_DOT":-9.73e-6,"MEAN_MOTION_DDOT":0},{"OBJECT_NAME":"STARLINK-31361","OBJECT_ID":"2024-031K","EPOCH":"2025-07-31T11:14:09.198528","MEAN_MOTION":15.30187231,"ECCENTRICITY":0.000114,"INCLINATION":53.1585,"RA_OF_ASC_NODE":244.2103,"ARG_OF_PERICENTER":93.6553,"MEAN_ANOMALY":266.4578,"EPHEMERIS_TYPE":0,"CLASSIFICATION_TYPE":"U","NORAD_CAT_ID":58974,"ELEMENT_SET_NO":999,"REV_AT_EPOCH":8266,"BSTAR":-2.7904e-5,"MEAN_MOTION_DOT":-1.185e-5,"MEAN_MOTION_DDOT":0},{"OBJECT_NAME":"STARLINK-31369","OBJECT_ID":"2024-031L","EPOCH":"2025-07-31T09:49:12.962784","MEAN_MOTION":15.30199078,"ECCENTRICITY":0.000115,"INCLINATION":53.1582,"RA_OF_ASC_NODE":244.5543,"ARG_OF_PERICENTER":92.7903,"MEAN_ANOMALY":267.323,"EPHEMERIS_TYPE":0,"CLASSIFICATION_TYPE":"U","NORAD_CAT_ID":58975,"ELEMENT_SET_NO":999,"REV_AT_EPOCH":8263,"BSTAR":-5.1071e-5,"MEAN_MOTION_DOT":-1.871e-5,"MEAN_MOTION_DDOT":0},{"OBJECT_NAME":"STARLINK-31324","OBJECT_ID":"2024-031M","EPOCH":"2025-07-31T09:53:46.258080","MEAN_MOTION":15.30193751,"ECCENTRICITY":0.0001216,"INCLINATION":53.1592,"RA_OF_ASC_NODE":244.5731,"ARG_OF_PERICENTER":83.1462,"MEAN_ANOMALY":276.9677,"EPHEMERIS_TYPE":0,"CLASSIFICATION_TYPE":"U","NORAD_CAT_ID":58976,"ELEMENT_SET_NO":999,"REV_AT_EPOCH":8263,"BSTAR":-2.0837e-5,"MEAN_MOTION_DOT":-9.76e-6,"MEAN_MOTION_DDOT":0},{"OBJECT_NAME":"STARLINK-31358","OBJECT_ID":"2024-031N","EPOCH":"2025-07-31T09:06:39.263904","MEAN_MOTION":15.30196778,"ECCENTRICITY":9.69e-5,"INCLINATION":53.1587,"RA_OF_ASC_NODE":244.3592,"ARG_OF_PERICENTER":92.7588,"MEAN_ANOMALY":267.3524,"EPHEMERIS_TYPE":0,"CLASSIFICATION_TYPE":"U","NORAD_CAT_ID":58977,"ELEMENT_SET_NO":999,"REV_AT_EPOCH":8263,"BSTAR":-6.6771e-5,"MEAN_MOTION_DOT":-2.336e-5,"MEAN_MOTION_DDOT":0},{"OBJECT_NAME":"STARLINK-31355","OBJECT_ID":"2024-031P","EPOCH":"2025-07-31T09:58:19.761600","MEAN_MOTION":15.30191144,"ECCENTRICITY":0.0001266,"INCLINATION":53.1594,"RA_OF_ASC_NODE":244.5947,"ARG_OF_PERICENTER":87.0184,"MEAN_ANOMALY":273.0961,"EPHEMERIS_TYPE":0,"CLASSIFICATION_TYPE":"U","NORAD_CAT_ID":58978,"ELEMENT_SET_NO":999,"REV_AT_EPOCH":8263,"BSTAR":-3.2672e-6,"MEAN_MOTION_DOT":-4.56e-6,"MEAN_MOTION_DDOT":0},{"OBJECT_NAME":"STARLINK-31380","OBJECT_ID":"2024-031Q","EPOCH":"2025-07-31T08:28:50.252160","MEAN_MOTION":15.30187436,"ECCENTRICITY":0.0001332,"INCLINATION":53.1592,"RA_OF_ASC_NODE":244.917,"ARG_OF_PERICENTER":87.9139,"MEAN_ANOMALY":272.2014,"EPHEMERIS_TYPE":0,"CLASSIFICATION_TYPE":"U","NORAD_CAT_ID":58979,"ELEMENT_SET_NO":999,"REV_AT_EPOCH":8262,"BSTAR":7.7062e-6,"MEAN_MOTION_DOT":-1.31e-6,"MEAN_MOTION_DDOT":0},{"OBJECT_NAME":"STARLINK-31353","OBJECT_ID":"2024-031R","EPOCH":"2025-07-31T09:59:51.070848","MEAN_MOTION":15.30189004,"ECCENTRICITY":0.000136,"INCLINATION":53.1595,"RA_OF_ASC_NODE":244.6032,"ARG_OF_PERICENTER":88.2329,"MEAN_ANOMALY":271.8827,"EPHEMERIS_TYPE":0,"CLASSIFICATION_TYPE":"U","NORAD_CAT_ID":58980,"ELEMENT_SET_NO":999,"REV_AT_EPOCH":8263,"BSTAR":-1.6358e-6,"MEAN_MOTION_DOT":-4.08e-6,"MEAN_MOTION_DDOT":0},{"OBJECT_NAME":"STARLINK-31339","OBJECT_ID":"2024-031S","EPOCH":"2025-07-31T08:33:23.668416","MEAN_MOTION":15.30189498,"ECCENTRICITY":0.0001271,"INCLINATION":53.1591,"RA_OF_ASC_NODE":244.9374,"ARG_OF_PERICENTER":83.8296,"MEAN_ANOMALY":276.285,"EPHEMERIS_TYPE":0,"CLASSIFICATION_TYPE":"U","NORAD_CAT_ID":58981,"ELEMENT_SET_NO":999,"REV_AT_EPOCH":8262,"BSTAR":2.1032e-5,"MEAN_MOTION_DOT":2.64e-6,"MEAN_MOTION_DDOT":0},{"OBJECT_NAME":"STARLINK-31384","OBJECT_ID":"2024-031U","EPOCH":"2025-08-01T01:57:05.983200","MEAN_MOTION":15.30185312,"ECCENTRICITY":0.0001657,"INCLINATION":53.1595,"RA_OF_ASC_NODE":241.6389,"ARG_OF_PERICENTER":103.2324,"MEAN_ANOMALY":256.8862,"EPHEMERIS_TYPE":0,"CLASSIFICATION_TYPE":"U","NORAD_CAT_ID":58983,"ELEMENT_SET_NO":999,"REV_AT_EPOCH":8275,"BSTAR":2.1772e-5,"MEAN_MOTION_DOT":2.85e-6,"MEAN_MOTION_DDOT":0},{"OBJECT_NAME":"STARLINK-31379","OBJECT_ID":"2024-031V","EPOCH":"2025-08-01T05:11:17.508768","MEAN_MOTION":15.30201915,"ECCENTRICITY":0.0001139,"INCLINATION":53.159,"RA_OF_ASC_NODE":241.0574,"ARG_OF_PERICENTER":65.1896,"MEAN_ANOMALY":294.9223,"EPHEMERIS_TYPE":0,"CLASSIFICATION_TYPE":"U","NORAD_CAT_ID":58984,"ELEMENT_SET_NO":999,"REV_AT_EPOCH":8277,"BSTAR":6.5362e-6,"MEAN_MOTION_DOT":-1.66e-6,"MEAN_MOTION_DDOT":0},{"OBJECT_NAME":"STARLINK-31385","OBJECT_ID":"2024-031W","EPOCH":"2025-07-31T11:20:58.643808","MEAN_MOTION":15.30188765,"ECCENTRICITY":0.0001282,"INCLINATION":53.1597,"RA_OF_ASC_NODE":242.0721,"ARG_OF_PERICENTER":83.2327,"MEAN_ANOMALY":276.882,"EPHEMERIS_TYPE":0,"CLASSIFICATION_TYPE":"U","NORAD_CAT_ID":58985,"ELEMENT_SET_NO":999,"REV_AT_EPOCH":8267,"BSTAR":-6.8228e-8,"MEAN_MOTION_DOT":-3.61e-6,"MEAN_MOTION_DDOT":0}]
