STARLINK-31356          
1 58968U 24031D   25213.19235820 -.00001893  00000+0 -51856-4 0  9990
2 58968  53.1588 213.0344 0000969  83.6765 276.4346 15.30175279 83120
STARLINK-31335          
1 58969U 24031E   25212.35166210 -.00001177  00000+0 -27625-4 0  9996
2 58969  53.1588 242.0729 0001131  79.1461 280.9667 15.30195828 82683
STARLINK-31368          
1 58970U 24031F   25212.57768347  .00000111  00000+0  15888-4 0  9994
2 58970  53.1587 243.4830 0001164  83.0979 277.0154 15.30193372 82686
STARLINK-31333          
1 58971U 24031G   25213.21245909  .00002207  00000+0  86682-4 0  9999
2 58971  53.1600 228.2583 0001019  89.4335 270.6782 15.30172652 82958
STARLINK-31351          
1 58972U 24031H   25212.46499552 -.00001035  00000+0 -22845-4 0  9992
2 58972  53.1584 244.1931 0001120  95.8340 264.2788 15.30189382 82654
STARLINK-31365          
1 58973U 24031J   25212.47132499 -.00000973  00000+0 -20743-4 0  9993
2 58973  53.1593 244.2310 0001258  86.4468 273.6676 15.30189989 82660
STARLINK-31361          
1 58974U 24031K   25212.46816202 -.00001185  00000+0 -27904-4 0  9996
2 58974  53.1585 244.2103 0001140  93.6553 266.4578 15.30187231 82666
STARLINK-31369          
1 58975U 24031L   25212.40917781 -.00001871  00000+0 -51071-4 0  9999
2 58975  53.1582 244.5543 0001150  92.7903 267.3230 15.30199078 82639
STARLINK-31324          
1 58976U 24031M   25212.41234095 -.00000976  00000+0 -20837-4 0  9992
2 58976  53.1592 244.5731 0001216  83.1462 276.9677 15.30193751 82630
STARLINK-31358          
1 58977U 24031N   25212.37962111 -.00002336  00000+0 -66771-4 0  9994
2 58977  53.1587 244.3592 0000969  92.7588 267.3524 15.30196778 82634
STARLINK-31355          
1 58978U 24031P   25212.41550650 -.00000456  00000+0 -32672-5 0  9996
2 58978  53.1594 244.5947 0001266  87.0184 273.0961 15.30191144 82630
STARLINK-31380          
1 58979U 24031Q   25212.35335940 -.00000131  00000+0  77062-5 0  9994
2 58979  53.1592 244.9170 0001332  87.9139 272.2014 15.30187436 82622
STARLINK-31353          
1 58980U 24031R   25212.41656332 -.00000408  00000+0 -16358-5 0  9993
2 58980  53.1595 244.6032 0001360  88.2329 271.8827 15.30189004 82638
STARLINK-31339          
1 58981U 24031S   25212.35652394  .00000264  00000+0  21032-4 0  9993
2 58981  53.1591 244.9374 0001271  83.8296 276.2850 15.30189498 82623
STARLINK-31384          
1 58983U 24031U   25213.08131925  .00000285  00000+0  21772-4 0  9992
2 58983  53.1595 241.6389 0001657 103.2324 256.8862 15.30185312 82758
STARLINK-31379          
1 58984U 24031V   25213.21617487 -.00000166  00000+0  65362-5 0  9993
2 58984  53.1590 241.0574 0001139  65.1896 294.9223 15.30201915 82773
STARLINK-31385          
1 58985U 24031W   25212.47290097 -.00000361  00000+0 -68228-7 0  9999
2 58985  53.1597 242.0721 0001282  83.2327 276.8820 15.30188765 82673
